[
    {
        "Altitude(m)": 611967.183140394,
        "Argument of Periapsis(deg)": 0.0,
        "Eccentricity": 0.0,
        "Inclination(deg)": 60.0,
        "Latitude(deg)": 59.14017433248519,
        "Longitude(deg)": 16.091895415724025,
        "Mean Anomaly(deg)": 98.18179999999998,
        "RAAN(deg)": 10.0,
        "Satellite Name": "Test1 50",
        "Satellite Number": 50,
        "Semi-Major Axis(m)": 6980739.136638005,
        "Time(s)": 0
    },
    {
        "Altitude(m)": 611934.3836453838,
        "Argument of Periapsis(deg)": 0.00010418945913296404,
        "Eccentricity": 0.0,
        "Inclination(deg)": 60.0,
        "Latitude(deg)": 58.98653842193138,
        "Longitude(deg)": 17.215142576792413,
        "Mean Anomaly(deg)": 98.80190614546183,
        "RAAN(deg)": 9.999579950860259,
        "Satellite Name": "Test1 50",
        "Satellite Number": 50,
        "Semi-Major Axis(m)": 6980739.136638005,
        "Time(s)": 10
    },
    {
        "Altitude(m)": 611899.2795083025,
        "Argument of Periapsis(deg)": 0.0002083789182659281,
        "Eccentricity": 0.0,
        "Inclination(deg)": 60.0,
        "Latitude(deg)": 58.82252437778491,
        "Longitude(deg)": 18.327724522647664,
        "Mean Anomaly(deg)": 99.42201229092365,
        "RAAN(deg)": 9.999159901720514,
        "Satellite Name": "Test1 50",
        "Satellite Number": 50,
        "Semi-Major Axis(m)": 6980739.136638005,
        "Time(s)": 20
    },
    {
        "Altitude(m)": 611861.890963215,
        "Argument of Periapsis(deg)": 0.00031256837739889213,
        "Eccentricity": 0.0,
        "Inclination(deg)": 60.0,
        "Latitude(deg)": 58.648295248117364,
        "Longitude(deg)": 19.4291294517578,
        "Mean Anomaly(deg)": 100.04211843638548,
        "RAAN(deg)": 9.998739852580773,
        "Satellite Name": "Test1 50",
        "Satellite Number": 50,
        "Semi-Major Axis(m)": 6980739.136638005,
        "Time(s)": 30
    },
    {
        "Altitude(m)": 611822.2395700221,
        "Argument of Periapsis(deg)": 0.0004167578365318562,
        "Eccentricity": 0.0,
        "Inclination(deg)": 60.0,
        "Latitude(deg)": 58.46402053010214,
        "Longitude(deg)": 20.518886311186797,
        "Mean Anomaly(deg)": 100.66222458184733,
        "RAAN(deg)": 9.99831980344103,
        "Satellite Name": "Test1 50",
        "Satellite Number": 50,
        "Semi-Major Axis(m)": 6980739.136638005,
        "Time(s)": 40
    },
    {
        "Altitude(m)": 611780.3482042474,
        "Argument of Periapsis(deg)": 0.0005209472956648203,
        "Eccentricity": 0.0,
        "Inclination(deg)": 60.0,
        "Latitude(deg)": 58.26987545349389,
        "Longitude(deg)": 21.59656402033749,
        "Mean Anomaly(deg)": 101.28233072730914,
        "RAAN(deg)": 9.997899754301287,
        "Satellite Name": "Test1 50",
        "Satellite Number": 50,
        "Semi-Major Axis(m)": 6980739.136638005,
        "Time(s)": 50
    },
    {
        "Altitude(m)": 611736.2410462411,
        "Argument of Periapsis(deg)": 0.0006251367547977843,
        "Eccentricity": 0.0,
        "Inclination(deg)": 60.0,
        "Latitude(deg)": 58.06604027056636,
        "Longitude(deg)": 22.661771917564845,
        "Mean Anomaly(deg)": 101.90243687277098,
        "RAAN(deg)": 9.997479705161545,
        "Satellite Name": "Test1 50",
        "Satellite Number": 50,
        "Semi-Major Axis(m)": 6980739.136638005,
        "Time(s)": 60
    },
    {
        "Altitude(m)": 611689.9435697085,
        "Argument of Periapsis(deg)": 0.0007293262139307483,
        "Eccentricity": 0.0,
        "Inclination(deg)": 60.0,
        "Latitude(deg)": 57.85269955788935,
        "Longitude(deg)": 23.714159937016603,
        "Mean Anomaly(deg)": 102.52254301823282,
        "RAAN(deg)": 9.9970596560218,
        "Satellite Name": "Test1 50",
        "Satellite Number": 50,
        "Semi-Major Axis(m)": 6980739.136638005,
        "Time(s)": 70
    },
    {
        "Altitude(m)": 611641.482529674,
        "Argument of Periapsis(deg)": 0.0008335156730637124,
        "Eccentricity": 0.0,
        "Inclination(deg)": 60.0,
        "Latitude(deg)": 57.6300415347836,
        "Longitude(deg)": 24.75341702521233,
        "Mean Anomaly(deg)": 103.14264916369464,
        "RAAN(deg)": 9.99663960688206,
        "Satellite Name": "Test1 50",
        "Satellite Number": 50,
        "Semi-Major Axis(m)": 6980739.136638005,
        "Time(s)": 80
    },
    {
        "Altitude(m)": 611590.8859497876,
        "Argument of Periapsis(deg)": 0.0009377051321966765,
        "Eccentricity": 0.0,
        "Inclination(deg)": 60.0,
        "Latitude(deg)": 57.398257402730366,
        "Longitude(deg)": 25.77927084703877,
        "Mean Anomaly(deg)": 103.76275530915647,
        "RAAN(deg)": 9.996219557742315,
        "Satellite Name": "Test1 50",
        "Satellite Number": 50,
        "Semi-Major Axis(m)": 6980739.136638005,
        "Time(s)": 90
    },
    {
        "Altitude(m)": 611538.1831090575,
        "Argument of Periapsis(deg)": 0.0010418945913296407,
        "Eccentricity": 0.0,
        "Inclination(deg)": 60.0,
        "Latitude(deg)": 57.157540709419784,
        "Longitude(deg)": 26.79148729317443,
        "Mean Anomaly(deg)": 104.3828614546183,
        "RAAN(deg)": 9.995799508602573,
        "Satellite Name": "Test1 50",
        "Satellite Number": 50,
        "Semi-Major Axis(m)": 6980739.136638005,
        "Time(s)": 100
    },
    {
        "Altitude(m)": 611483.4045279355,
        "Argument of Periapsis(deg)": 0.0011460840504626045,
        "Eccentricity": 0.0,
        "Inclination(deg)": 60.0,
        "Latitude(deg)": 56.90808674053498,
        "Longitude(deg)": 27.789868301372866,
        "Mean Anomaly(deg)": 105.00296760008014,
        "RAAN(deg)": 9.99537945946283,
        "Satellite Name": "Test1 50",
        "Satellite Number": 50,
        "Semi-Major Axis(m)": 6980739.136638005,
        "Time(s)": 110
    },
    {
        "Altitude(m)": 611426.5819538783,
        "Argument of Periapsis(deg)": 0.0012502735095955685,
        "Eccentricity": 0.0,
        "Inclination(deg)": 60.0,
        "Latitude(deg)": 56.650091941802096,
        "Longitude(deg)": 28.774251042586986,
        "Mean Anomaly(deg)": 105.62307374554194,
        "RAAN(deg)": 9.994959410323089,
        "Satellite Name": "Test1 50",
        "Satellite Number": 50,
        "Semi-Major Axis(m)": 6980739.136638005,
        "Time(s)": 120
    },
    {
        "Altitude(m)": 611367.7483462316,
        "Argument of Periapsis(deg)": 0.0013544629687285324,
        "Eccentricity": 0.0,
        "Inclination(deg)": 60.0,
        "Latitude(deg)": 56.383753373271794,
        "Longitude(deg)": 29.74450698379195,
        "Mean Anomaly(deg)": 106.24317989100379,
        "RAAN(deg)": 9.994539361183346,
        "Satellite Name": "Test1 50",
        "Satellite Number": 50,
        "Semi-Major Axis(m)": 6980739.136638005,
        "Time(s)": 130
    },
    {
        "Altitude(m)": 611306.9378605839,
        "Argument of Periapsis(deg)": 0.0014586524278614966,
        "Eccentricity": 0.0,
        "Inclination(deg)": 60.0,
        "Latitude(deg)": 56.10926819727266,
        "Longitude(deg)": 30.70053933849339,
        "Mean Anomaly(deg)": 106.86328603646564,
        "RAAN(deg)": 9.994119312043603,
        "Satellite Name": "Test1 50",
        "Satellite Number": 50,
        "Semi-Major Axis(m)": 6980739.136638005,
        "Time(s)": 140
    },
    {
        "Altitude(m)": 611244.1858325311,
        "Argument of Periapsis(deg)": 0.0015628418869944607,
        "Eccentricity": 0.0,
        "Inclination(deg)": 60.0,
        "Latitude(deg)": 55.82683320099233,
        "Longitude(deg)": 31.642281953366606,
        "Mean Anomaly(deg)": 107.48339218192744,
        "RAAN(deg)": 9.99369926290386,
        "Satellite Name": "Test1 50",
        "Satellite Number": 50,
        "Semi-Major Axis(m)": 6980739.136638005,
        "Time(s)": 150
    },
    {
        "Altitude(m)": 611179.5287608587,
        "Argument of Periapsis(deg)": 0.0016670313461274247,
        "Eccentricity": 0.0,
        "Inclination(deg)": 60.0,
        "Latitude(deg)": 55.53664435418508,
        "Longitude(deg)": 32.56969813943535,
        "Mean Anomaly(deg)": 108.10349832738929,
        "RAAN(deg)": 9.993279213764117,
        "Satellite Name": "Test1 50",
        "Satellite Number": 50,
        "Semi-Major Axis(m)": 6980739.136638005,
        "Time(s)": 160
    },
    {
        "Altitude(m)": 611113.0042901541,
        "Argument of Periapsis(deg)": 0.0017712208052603888,
        "Eccentricity": 0.0,
        "Inclination(deg)": 60.0,
        "Latitude(deg)": 55.238896402095946,
        "Longitude(deg)": 33.48277795461599,
        "Mean Anomaly(deg)": 108.72360447285114,
        "RAAN(deg)": 9.992859164624374,
        "Satellite Name": "Test1 50",
        "Satellite Number": 50,
        "Semi-Major Axis(m)": 6980739.136638005,
        "Time(s)": 170
    },
    {
        "Altitude(m)": 611044.6511928756,
        "Argument of Periapsis(deg)": 0.001875410264393353,
        "Eccentricity": 0.0,
        "Inclination(deg)": 60.0,
        "Latitude(deg)": 54.933782493338434,
        "Longitude(deg)": 34.38153698136926,
        "Mean Anomaly(deg)": 109.34371061831294,
        "RAAN(deg)": 9.992439115484633,
        "Satellite Name": "Test1 50",
        "Satellite Number": 50,
        "Semi-Major Axis(m)": 6980739.136638005,
        "Time(s)": 180
    },
    {
        "Altitude(m)": 610974.5093508662,
        "Argument of Periapsis(deg)": 0.0019795997235263173,
        "Eccentricity": 0.0,
        "Inclination(deg)": 60.0,
        "Latitude(deg)": 54.621493842138314,
        "Longitude(deg)": 35.26601510280016,
        "Mean Anomaly(deg)": 109.96381676377476,
        "RAAN(deg)": 9.992019066344888,
        "Satellite Name": "Test1 50",
        "Satellite Number": 50,
        "Semi-Major Axis(m)": 6980739.136638005,
        "Time(s)": 190
    }
]